[{"OBJECT_NAME":"COSMOS 2539","OBJECT_ID":"2019-048A","EPOCH":"2026-04-24T17:07:57.572256","MEAN_MOTION":1.00271244,"ECCENTRICITY":4.18e-5,"INCLINATION":0.0325,"RA_OF_ASC_NODE":69.6278,"ARG_OF_PERICENTER":88.28,"MEAN_ANOMALY":323.8128,"EPHEMERIS_TYPE":0,"CLASSIFICATION_TYPE":"U","NORAD_CAT_ID":44457,"ELEMENT_SET_NO":999,"REV_AT_EPOCH":2469,"BSTAR":0,"MEAN_MOTION_DOT":6.6e-7,"MEAN_MOTION_DDOT":0},{"OBJECT_NAME":"EDRS-C","OBJECT_ID":"2019-049A","EPOCH":"2026-04-25T22:50:40.676352","MEAN_MOTION":1.00272975,"ECCENTRICITY":0.00012663,"INCLINATION":0.022,"RA_OF_ASC_NODE":149.0691,"ARG_OF_PERICENTER":225.8019,"MEAN_ANOMALY":324.2593,"EPHEMERIS_TYPE":0,"CLASSIFICATION_TYPE":"U","NORAD_CAT_ID":44475,"ELEMENT_SET_NO":999,"REV_AT_EPOCH":2468,"BSTAR":0,"MEAN_MOTION_DOT":-2.75e-6,"MEAN_MOTION_DDOT":0},{"OBJECT_NAME":"INTELSAT 39 (IS-39)","OBJECT_ID":"2019-049B","EPOCH":"2026-04-25T17:19:40.221984","MEAN_MOTION":1.0026954,"ECCENTRICITY":4.794e-5,"INCLINATION":0.0173,"RA_OF_ASC_NODE":238.7985,"ARG_OF_PERICENTER":6.5465,"MEAN_ANOMALY":290.2524,"EPHEMERIS_TYPE":0,"CLASSIFICATION_TYPE":"U","NORAD_CAT_ID":44476,"ELEMENT_SET_NO":999,"REV_AT_EPOCH":2460,"BSTAR":0,"MEAN_MOTION_DOT":0,"MEAN_MOTION_DDOT":0},{"OBJECT_NAME":"AMOS-17","OBJECT_ID":"2019-050A","EPOCH":"2026-04-25T13:41:29.406336","MEAN_MOTION":1.00275165,"ECCENTRICITY":0.00013197,"INCLINATION":0.0115,"RA_OF_ASC_NODE":309.9385,"ARG_OF_PERICENTER":100.3288,"MEAN_ANOMALY":25.7123,"EPHEMERIS_TYPE":0,"CLASSIFICATION_TYPE":"U","NORAD_CAT_ID":44479,"ELEMENT_SET_NO":999,"REV_AT_EPOCH":2465,"BSTAR":0,"MEAN_MOTION_DOT":9.6e-7,"MEAN_MOTION_DDOT":0},{"OBJECT_NAME":"AEHF-5 (USA 292)","OBJECT_ID":"2019-051A","EPOCH":"2026-04-25T23:13:53.102208","MEAN_MOTION":1.00272956,"ECCENTRICITY":0.00695077,"INCLINATION":1.505,"RA_OF_ASC_NODE":332.347,"ARG_OF_PERICENTER":2.7597,"MEAN_ANOMALY":320.4237,"EPHEMERIS_TYPE":0,"CLASSIFICATION_TYPE":"U","NORAD_CAT_ID":44481,"ELEMENT_SET_NO":999,"REV_AT_EPOCH":2473,"BSTAR":0,"MEAN_MOTION_DOT":-2.74e-6,"MEAN_MOTION_DDOT":0},{"OBJECT_NAME":"EUTELSAT 5 WEST B","OBJECT_ID":"2019-067A","EPOCH":"2026-04-25T22:08:37.208832","MEAN_MOTION":1.00271275,"ECCENTRICITY":0.00031402,"INCLINATION":0.0689,"RA_OF_ASC_NODE":8.7741,"ARG_OF_PERICENTER":25.4592,"MEAN_ANOMALY":146.8476,"EPHEMERIS_TYPE":0,"CLASSIFICATION_TYPE":"U","NORAD_CAT_ID":44624,"ELEMENT_SET_NO":999,"REV_AT_EPOCH":2391,"BSTAR":0,"MEAN_MOTION_DOT":-5.6e-7,"MEAN_MOTION_DDOT":0},{"OBJECT_NAME":"TJS-4","OBJECT_ID":"2019-070A","EPOCH":"2026-04-25T22:33:49.791168","MEAN_MOTION":1.0026985,"ECCENTRICITY":0.00028631,"INCLINATION":0.0754,"RA_OF_ASC_NODE":76.3693,"ARG_OF_PERICENTER":353.3963,"MEAN_ANOMALY":206.1629,"EPHEMERIS_TYPE":0,"CLASSIFICATION_TYPE":"U","NORAD_CAT_ID":44637,"ELEMENT_SET_NO":999,"REV_AT_EPOCH":2401,"BSTAR":0,"MEAN_MOTION_DOT":-1.83e-6,"MEAN_MOTION_DDOT":0},{"OBJECT_NAME":"BEIDOU-3 IGSO-3","OBJECT_ID":"2019-073A","EPOCH":"2026-04-25T20:42:52.587360","MEAN_MOTION":1.00252806,"ECCENTRICITY":0.00421169,"INCLINATION":54.8923,"RA_OF_ASC_NODE":281.4605,"ARG_OF_PERICENTER":188.7957,"MEAN_ANOMALY":171.0495,"EPHEMERIS_TYPE":0,"CLASSIFICATION_TYPE":"U","NORAD_CAT_ID":44709,"ELEMENT_SET_NO":999,"REV_AT_EPOCH":2393,"BSTAR":0,"MEAN_MOTION_DOT":-1.95e-6,"MEAN_MOTION_DDOT":0},{"OBJECT_NAME":"TIBA-1","OBJECT_ID":"2019-080A","EPOCH":"2026-04-25T13:46:43.903200","MEAN_MOTION":1.00273248,"ECCENTRICITY":0.00019206,"INCLINATION":0.0612,"RA_OF_ASC_NODE":26.4702,"ARG_OF_PERICENTER":4.5813,"MEAN_ANOMALY":64.7104,"EPHEMERIS_TYPE":0,"CLASSIFICATION_TYPE":"U","NORAD_CAT_ID":44800,"ELEMENT_SET_NO":999,"REV_AT_EPOCH":2353,"BSTAR":0,"MEAN_MOTION_DOT":1.42e-6,"MEAN_MOTION_DDOT":0},{"OBJECT_NAME":"INMARSAT GX5","OBJECT_ID":"2019-080B","EPOCH":"2026-04-25T22:13:06.777696","MEAN_MOTION":1.00269267,"ECCENTRICITY":0.00016918,"INCLINATION":0.0469,"RA_OF_ASC_NODE":19.0654,"ARG_OF_PERICENTER":11.5385,"MEAN_ANOMALY":167.6253,"EPHEMERIS_TYPE":0,"CLASSIFICATION_TYPE":"U","NORAD_CAT_ID":44801,"ELEMENT_SET_NO":999,"REV_AT_EPOCH":626,"BSTAR":0,"MEAN_MOTION_DOT":6.1e-7,"MEAN_MOTION_DDOT":0},{"OBJECT_NAME":"JCSAT-18 (KACIFIC 1)","OBJECT_ID":"2019-091A","EPOCH":"2026-04-25T05:26:38.601024","MEAN_MOTION":1.00272318,"ECCENTRICITY":2.72e-5,"INCLINATION":0.02,"RA_OF_ASC_NODE":345.5435,"ARG_OF_PERICENTER":312.7522,"MEAN_ANOMALY":146.6281,"EPHEMERIS_TYPE":0,"CLASSIFICATION_TYPE":"U","NORAD_CAT_ID":44868,"ELEMENT_SET_NO":999,"REV_AT_EPOCH":2347,"BSTAR":0,"MEAN_MOTION_DOT":-2.15e-6,"MEAN_MOTION_DDOT":0},{"OBJECT_NAME":"ELEKTRO-L 3","OBJECT_ID":"2019-095A","EPOCH":"2026-04-25T23:44:51.644832","MEAN_MOTION":1.00271203,"ECCENTRICITY":0.0001058,"INCLINATION":0.1237,"RA_OF_ASC_NODE":75.6117,"ARG_OF_PERICENTER":295.5808,"MEAN_ANOMALY":274.9605,"EPHEMERIS_TYPE":0,"CLASSIFICATION_TYPE":"U","NORAD_CAT_ID":44903,"ELEMENT_SET_NO":999,"REV_AT_EPOCH":2318,"BSTAR":0,"MEAN_MOTION_DOT":-1.09e-6,"MEAN_MOTION_DDOT":0},{"OBJECT_NAME":"SHIJIAN-20 (SJ-20)","OBJECT_ID":"2019-097A","EPOCH":"2026-04-25T13:49:21.151200","MEAN_MOTION":1.0027379,"ECCENTRICITY":0.0011428,"INCLINATION":4.7871,"RA_OF_ASC_NODE":75.691,"ARG_OF_PERICENTER":51.7502,"MEAN_ANOMALY":338.2319,"EPHEMERIS_TYPE":0,"CLASSIFICATION_TYPE":"U","NORAD_CAT_ID":44910,"ELEMENT_SET_NO":999,"REV_AT_EPOCH":2317,"BSTAR":0,"MEAN_MOTION_DOT":1.25e-6,"MEAN_MOTION_DDOT":0},{"OBJECT_NAME":"TJS-5","OBJECT_ID":"2020-002A","EPOCH":"2026-04-25T19:15:16.332768","MEAN_MOTION":1.00271796,"ECCENTRICITY":0.0006139,"INCLINATION":0.1422,"RA_OF_ASC_NODE":270.889,"ARG_OF_PERICENTER":123.1246,"MEAN_ANOMALY":216.1305,"EPHEMERIS_TYPE":0,"CLASSIFICATION_TYPE":"U","NORAD_CAT_ID":44978,"ELEMENT_SET_NO":999,"REV_AT_EPOCH":2318,"BSTAR":0,"MEAN_MOTION_DOT":-3.56e-6,"MEAN_MOTION_DDOT":0},{"OBJECT_NAME":"GSAT-30","OBJECT_ID":"2020-005A","EPOCH":"2026-04-25T22:33:42.302880","MEAN_MOTION":1.00270824,"ECCENTRICITY":0.0002558,"INCLINATION":0.0494,"RA_OF_ASC_NODE":85.6299,"ARG_OF_PERICENTER":342.2858,"MEAN_ANOMALY":207.4691,"EPHEMERIS_TYPE":0,"CLASSIFICATION_TYPE":"U","NORAD_CAT_ID":45026,"ELEMENT_SET_NO":999,"REV_AT_EPOCH":2298,"BSTAR":0,"MEAN_MOTION_DOT":-1.78e-6,"MEAN_MOTION_DDOT":0},{"OBJECT_NAME":"EUTELSAT KONNECT","OBJECT_ID":"2020-005B","EPOCH":"2026-04-25T05:05:18.019968","MEAN_MOTION":1.00270536,"ECCENTRICITY":0.0002048,"INCLINATION":0.0706,"RA_OF_ASC_NODE":89.5744,"ARG_OF_PERICENTER":205.8484,"MEAN_ANOMALY":1.3404,"EPHEMERIS_TYPE":0,"CLASSIFICATION_TYPE":"U","NORAD_CAT_ID":45027,"ELEMENT_SET_NO":999,"REV_AT_EPOCH":2380,"BSTAR":0,"MEAN_MOTION_DOT":3.5e-7,"MEAN_MOTION_DDOT":0},{"OBJECT_NAME":"JCSAT-17","OBJECT_ID":"2020-013A","EPOCH":"2026-04-25T22:48:48.354624","MEAN_MOTION":1.00272021,"ECCENTRICITY":0.00040251,"INCLINATION":5.3943,"RA_OF_ASC_NODE":356.372,"ARG_OF_PERICENTER":24.9691,"MEAN_ANOMALY":310.8132,"EPHEMERIS_TYPE":0,"CLASSIFICATION_TYPE":"U","NORAD_CAT_ID":45245,"ELEMENT_SET_NO":999,"REV_AT_EPOCH":2270,"BSTAR":0,"MEAN_MOTION_DOT":-3.35e-6,"MEAN_MOTION_DDOT":0}]
