COSMOS 2539             
1 44457U 19048A   26114.71386079  .00000066  00000+0  00000+0 0  9991
2 44457   0.0325  69.6278 0000418  88.2800 323.8128  1.00271244 24692
EDRS-C                  
1 44475U 19049A   26115.95185968 -.00000275  00000+0  00000+0 0  9996
2 44475   0.0220 149.0691 0001266 225.8019 324.2593  1.00272975 24683
INTELSAT 39 (IS-39)     
1 44476U 19049B   26115.72199331  .00000000  00000+0  00000+0 0  9996
2 44476   0.0173 238.7985 0000479   6.5465 290.2524  1.00269540 24609
AMOS-17                 
1 44479U 19050A   26115.57047924  .00000096  00000+0  00000+0 0  9999
2 44479   0.0115 309.9385 0001319 100.3288  25.7123  1.00275165 24654
AEHF-5 (USA 292)        
1 44481U 19051A   26115.96797572 -.00000274  00000+0  00000+0 0  9996
2 44481   1.5050 332.3470 0069507   2.7597 320.4237  1.00272956 24732
EUTELSAT 5 WEST B       
1 44624U 19067A   26115.92265288 -.00000056  00000+0  00000+0 0  9990
2 44624   0.0689   8.7741 0003140  25.4592 146.8476  1.00271275 23913
TJS-4                   
1 44637U 19070A   26115.94015962 -.00000183  00000+0  00000+0 0  9993
2 44637   0.0754  76.3693 0002863 353.3963 206.1629  1.00269850 24011
BEIDOU-3 IGSO-3         
1 44709U 19073A   26115.86310865 -.00000195  00000+0  00000+0 0  9990
2 44709  54.8923 281.4605 0042116 188.7957 171.0495  1.00252806 23930
TIBA-1                  
1 44800U 19080A   26115.57411925  .00000142  00000+0  00000+0 0  9998
2 44800   0.0612  26.4702 0001920   4.5813  64.7104  1.00273248 23533
INMARSAT GX5            
1 44801U 19080B   26115.92577289  .00000061  00000+0  00000+0 0  9994
2 44801   0.0469  19.0654 0001691  11.5385 167.6253  1.00269267  6260
JCSAT-18 (KACIFIC 1)    
1 44868U 19091A   26115.22683566 -.00000215  00000+0  00000+0 0  9990
2 44868   0.0200 345.5435 0000272 312.7522 146.6281  1.00272318 23474
ELEKTRO-L 3             
1 44903U 19095A   26115.98948663 -.00000109  00000+0  00000+0 0  9991
2 44903   0.1237  75.6117 0001058 295.5808 274.9605  1.00271203 23186
SHIJIAN-20 (SJ-20)      
1 44910U 19097A   26115.57593925  .00000125  00000+0  00000+0 0  9990
2 44910   4.7871  75.6910 0011428  51.7502 338.2319  1.00273790 23172
TJS-5                   
1 44978U 20002A   26115.80227237 -.00000356  00000+0  00000+0 0  9995
2 44978   0.1422 270.8890 0006139 123.1246 216.1305  1.00271796 23180
GSAT-30                 
1 45026U 20005A   26115.94007295 -.00000178  00000+0  00000+0 0  9990
2 45026   0.0494  85.6299 0002558 342.2858 207.4691  1.00270824 22981
EUTELSAT KONNECT        
1 45027U 20005B   26115.21201412  .00000035  00000+0  00000+0 0  9999
2 45027   0.0706  89.5744 0002048 205.8484   1.3404  1.00270536 23804
JCSAT-17                
1 45245U 20013A   26115.95055966 -.00000335  00000+0  00000+0 0  9996
2 45245   5.3943 356.3720 0004025  24.9691 310.8132  1.00272021 22708
